{"spkid": "50989367", "covariance": {"labels": ["e", "q", "tp", "node", "peri", "i"], "data": [["1.9964239122558E-14", "-2.618448875484582E-14", "-6.765405321022684E-12", "1.781104130856806E-12", "-1.090818331257689E-11", "1.327619365548418E-12"], ["-2.618448875484582E-14", "3.434381109489505E-14", "8.874464129569047E-12", "-2.338462302754414E-12", "1.431005090267684E-11", "-1.742504858729978E-12"], ["-6.765405321022684E-12", "8.874464129569047E-12", "2.392216648761492E-9", "-5.065585058289045E-10", "3.712151304240683E-9", "-4.799830341208015E-10"], ["1.781104130856806E-12", "-2.338462302754414E-12", "-5.065585058289045E-10", "8.745756953868715E-10", "-1.568960396629466E-9", "3.17591483636702E-10"], ["-1.090818331257689E-11", "1.431005090267684E-11", "3.712151304240683E-9", "-1.568960396629466E-9", "6.564499859169035E-9", "-9.560560548952161E-10"], ["1.327619365548418E-12", "-1.742504858729978E-12", "-4.799830341208015E-10", "3.17591483636702E-10", "-9.560560548952161E-10", "2.014095991408145E-10"]], "elements": [{"label": "e", "name": "e", "sigma": 1.4129486587473e-07, "units": null, "title": "eccentricity", "value": ".2798800932872781"}, {"label": "q", "value": ".9436678368283964", "title": "perihelion distance", "units": "au", "sigma": 1.85320832868016e-07, "name": "q"}, {"label": "tp", "sigma": 4.89102918490729e-05, "name": "tp", "units": "TDB", "value": "2459391.621436188543", "title": "time of perihelion passage"}, {"sigma": 2.95732259888378e-05, "name": "om", "units": "deg", "title": "longitude of the ascending node", "value": "118.742033682772", "label": "node"}, {"sigma": 8.10216011886277e-05, "name": "w", "units": "deg", "title": "argument of perihelion", "value": "328.9409419488287", "label": "peri"}, {"units": "deg", "value": "6.234537460799256", "title": "inclination", "sigma": 1.41918849749008e-05, "name": "i", "label": "i"}], "epoch": "2459205.5"}, "elements": [{"units": null, "title": "eccentricity", "value": ".2822687617591881", "name": "e", "sigma": "1.3861E-7", "label": "e"}, {"label": "a", "name": "a", "sigma": "6.5601E-9", "units": "au", "value": "1.315601813315834", "title": "semi-major axis"}, {"name": "q", "sigma": "1.8509E-7", "title": "perihelion distance", "value": ".944248518503031", "units": "au", "label": "q"}, {"sigma": "1.4211E-5", "name": "i", "value": "6.198116949321145", "title": "inclination; angle with respect to x-y ecliptic plane", "units": "deg", "label": "i"}, {"label": "node", "sigma": "2.9971E-5", "name": "om", "units": "deg", "value": "118.5909212365703", "title": "longitude of the ascending node"}, {"sigma": "8.1548E-5", "name": "w", "title": "argument of perihelion", "value": "329.3801867390462", "units": "deg", "label": "peri"}, {"sigma": "3.6543E-5", "name": "ma", "units": "deg", "title": "mean anomaly", "value": "104.1608444067811", "label": "M"}, {"label": "tp", "title": "time of perihelion passage", "value": "2461041.027018750666", "units": "TDB", "name": "tp", "sigma": "5.5031E-5"}, {"label": "period", "name": "per", "sigma": "4.1225E-6", "value": "551.1694300936628", "title": "sidereal orbital period", "units": "d"}, {"label": "n", "title": "mean motion", "value": ".653156688931067", "units": "deg/d", "name": "n", "sigma": "4.8853E-9"}, {"title": "aphelion distance", "value": "1.686955108128637", "units": "au", "name": "ad", "sigma": "8.4118E-9", "label": "Q"}], "epoch": "2461200.5"}